[{"OBJECT_NAME":"STARLINK-36817","OBJECT_ID":"2026-035D","EPOCH":"2026-03-05T06:00:02.999808","MEAN_MOTION":15.97476033,"ECCENTRICITY":0.00010378,"INCLINATION":97.2755,"RA_OF_ASC_NODE":356.2472,"ARG_OF_PERICENTER":117.3792,"MEAN_ANOMALY":204.9943,"EPHEMERIS_TYPE":0,"CLASSIFICATION_TYPE":"U","NORAD_CAT_ID":67882,"ELEMENT_SET_NO":999,"REV_AT_EPOCH":304,"BSTAR":-0.002195367,"MEAN_MOTION_DOT":-0.00963881,"MEAN_MOTION_DDOT":0.00029771787},{"OBJECT_NAME":"STARLINK-36856","OBJECT_ID":"2026-035E","EPOCH":"2026-03-05T06:00:02.999808","MEAN_MOTION":15.97398672,"ECCENTRICITY":0.00010197,"INCLINATION":97.2761,"RA_OF_ASC_NODE":356.2457,"ARG_OF_PERICENTER":105.5076,"MEAN_ANOMALY":213.0313,"EPHEMERIS_TYPE":0,"CLASSIFICATION_TYPE":"U","NORAD_CAT_ID":67883,"ELEMENT_SET_NO":999,"REV_AT_EPOCH":304,"BSTAR":-0.0022064362,"MEAN_MOTION_DOT":-0.00964638,"MEAN_MOTION_DDOT":0.00029790375},{"OBJECT_NAME":"STARLINK-36842","OBJECT_ID":"2026-035F","EPOCH":"2026-03-05T06:00:02.999808","MEAN_MOTION":15.97556065,"ECCENTRICITY":0.00011779,"INCLINATION":97.2756,"RA_OF_ASC_NODE":356.2486,"ARG_OF_PERICENTER":128.6588,"MEAN_ANOMALY":197.3074,"EPHEMERIS_TYPE":0,"CLASSIFICATION_TYPE":"U","NORAD_CAT_ID":67884,"ELEMENT_SET_NO":999,"REV_AT_EPOCH":304,"BSTAR":-0.0021757485,"MEAN_MOTION_DOT":-0.00959515,"MEAN_MOTION_DDOT":0.00029547533},{"OBJECT_NAME":"STARLINK-36826","OBJECT_ID":"2026-035G","EPOCH":"2026-03-05T06:00:02.999808","MEAN_MOTION":15.976446,"ECCENTRICITY":0.00012453,"INCLINATION":97.2755,"RA_OF_ASC_NODE":356.25,"ARG_OF_PERICENTER":128.0279,"MEAN_ANOMALY":200.8474,"EPHEMERIS_TYPE":0,"CLASSIFICATION_TYPE":"U","NORAD_CAT_ID":67885,"ELEMENT_SET_NO":999,"REV_AT_EPOCH":304,"BSTAR":-0.0020409158,"MEAN_MOTION_DOT":-0.00904825,"MEAN_MOTION_DDOT":0.00026521798},{"OBJECT_NAME":"STARLINK-36390","OBJECT_ID":"2026-035H","EPOCH":"2026-03-05T06:00:02.999808","MEAN_MOTION":15.97714316,"ECCENTRICITY":9.696e-5,"INCLINATION":97.2751,"RA_OF_ASC_NODE":356.2518,"ARG_OF_PERICENTER":99.0799,"MEAN_ANOMALY":234.1117,"EPHEMERIS_TYPE":0,"CLASSIFICATION_TYPE":"U","NORAD_CAT_ID":67886,"ELEMENT_SET_NO":999,"REV_AT_EPOCH":309,"BSTAR":-0.0021781213,"MEAN_MOTION_DOT":-0.00968852,"MEAN_MOTION_DDOT":0.0003013599},{"OBJECT_NAME":"STARLINK-36368","OBJECT_ID":"2026-035J","EPOCH":"2026-03-05T06:00:02.999808","MEAN_MOTION":15.97803173,"ECCENTRICITY":0.00011832,"INCLINATION":97.275,"RA_OF_ASC_NODE":356.2537,"ARG_OF_PERICENTER":119.6032,"MEAN_ANOMALY":217.7106,"EPHEMERIS_TYPE":0,"CLASSIFICATION_TYPE":"U","NORAD_CAT_ID":67887,"ELEMENT_SET_NO":999,"REV_AT_EPOCH":304,"BSTAR":-0.002181146,"MEAN_MOTION_DOT":-0.00974926,"MEAN_MOTION_DDOT":0.00030516673},{"OBJECT_NAME":"STARLINK-36801","OBJECT_ID":"2026-035K","EPOCH":"2026-03-05T06:00:02.999808","MEAN_MOTION":15.97890003,"ECCENTRICITY":0.00010166,"INCLINATION":97.2747,"RA_OF_ASC_NODE":356.2552,"ARG_OF_PERICENTER":119.5485,"MEAN_ANOMALY":221.7466,"EPHEMERIS_TYPE":0,"CLASSIFICATION_TYPE":"U","NORAD_CAT_ID":67888,"ELEMENT_SET_NO":999,"REV_AT_EPOCH":304,"BSTAR":-0.0021898261,"MEAN_MOTION_DOT":-0.00983411,"MEAN_MOTION_DDOT":0.00031040747},{"OBJECT_NAME":"STARLINK-36372","OBJECT_ID":"2026-035L","EPOCH":"2026-03-05T06:00:02.999808","MEAN_MOTION":15.9806746,"ECCENTRICITY":0.00011021,"INCLINATION":97.2742,"RA_OF_ASC_NODE":356.258,"ARG_OF_PERICENTER":129.1382,"MEAN_ANOMALY":219.8062,"EPHEMERIS_TYPE":0,"CLASSIFICATION_TYPE":"U","NORAD_CAT_ID":67889,"ELEMENT_SET_NO":999,"REV_AT_EPOCH":304,"BSTAR":-0.0021488302,"MEAN_MOTION_DOT":-0.00974564,"MEAN_MOTION_DDOT":0.0003058385},{"OBJECT_NAME":"STARLINK-36363","OBJECT_ID":"2026-035M","EPOCH":"2026-03-05T06:00:02.999808","MEAN_MOTION":15.97971389,"ECCENTRICITY":0.00010587,"INCLINATION":97.2746,"RA_OF_ASC_NODE":356.2571,"ARG_OF_PERICENTER":111.8581,"MEAN_ANOMALY":233.9198,"EPHEMERIS_TYPE":0,"CLASSIFICATION_TYPE":"U","NORAD_CAT_ID":67890,"ELEMENT_SET_NO":999,"REV_AT_EPOCH":304,"BSTAR":-0.0021553568,"MEAN_MOTION_DOT":-0.0097237,"MEAN_MOTION_DDOT":0.00030424509},{"OBJECT_NAME":"STARLINK-36816","OBJECT_ID":"2026-035N","EPOCH":"2026-03-05T04:18:18.457056","MEAN_MOTION":15.99682736,"ECCENTRICITY":0.00016141,"INCLINATION":97.2738,"RA_OF_ASC_NODE":356.2032,"ARG_OF_PERICENTER":175.2472,"MEAN_ANOMALY":184.8822,"EPHEMERIS_TYPE":0,"CLASSIFICATION_TYPE":"U","NORAD_CAT_ID":67891,"ELEMENT_SET_NO":999,"REV_AT_EPOCH":312,"BSTAR":-0.00087870329,"MEAN_MOTION_DOT":-0.00437906,"MEAN_MOTION_DDOT":7.0037953e-5},{"OBJECT_NAME":"STARLINK-36813","OBJECT_ID":"2026-035P","EPOCH":"2026-03-05T04:24:43.960032","MEAN_MOTION":15.99104641,"ECCENTRICITY":8.02e-5,"INCLINATION":97.2727,"RA_OF_ASC_NODE":356.1986,"ARG_OF_PERICENTER":130.2811,"MEAN_ANOMALY":229.8538,"EPHEMERIS_TYPE":0,"CLASSIFICATION_TYPE":"U","NORAD_CAT_ID":67892,"ELEMENT_SET_NO":999,"REV_AT_EPOCH":312,"BSTAR":-0.00055436508,"MEAN_MOTION_DOT":-0.0026785,"MEAN_MOTION_DDOT":2.8164831e-5},{"OBJECT_NAME":"STARLINK-36803","OBJECT_ID":"2026-035Q","EPOCH":"2026-03-05T06:00:02.999808","MEAN_MOTION":15.98148765,"ECCENTRICITY":9.924e-5,"INCLINATION":97.2742,"RA_OF_ASC_NODE":356.2599,"ARG_OF_PERICENTER":111.2174,"MEAN_ANOMALY":242.5057,"EPHEMERIS_TYPE":0,"CLASSIFICATION_TYPE":"U","NORAD_CAT_ID":67893,"ELEMENT_SET_NO":999,"REV_AT_EPOCH":304,"BSTAR":-0.0021413879,"MEAN_MOTION_DOT":-0.0097554,"MEAN_MOTION_DDOT":0.0003066847},{"OBJECT_NAME":"STARLINK-36846","OBJECT_ID":"2026-035R","EPOCH":"2026-03-05T06:00:02.999808","MEAN_MOTION":15.98354503,"ECCENTRICITY":0.00010284,"INCLINATION":97.2737,"RA_OF_ASC_NODE":356.2639,"ARG_OF_PERICENTER":113.6422,"MEAN_ANOMALY":249.8287,"EPHEMERIS_TYPE":0,"CLASSIFICATION_TYPE":"U","NORAD_CAT_ID":67894,"ELEMENT_SET_NO":999,"REV_AT_EPOCH":304,"BSTAR":-0.0021702744,"MEAN_MOTION_DOT":-0.00999829,"MEAN_MOTION_DDOT":0.0003217229},{"OBJECT_NAME":"STARLINK-36866","OBJECT_ID":"2026-035S","EPOCH":"2026-03-05T04:27:58.576032","MEAN_MOTION":15.98803356,"ECCENTRICITY":6.245e-5,"INCLINATION":97.2738,"RA_OF_ASC_NODE":356.1972,"ARG_OF_PERICENTER":49.4563,"MEAN_ANOMALY":310.6769,"EPHEMERIS_TYPE":0,"CLASSIFICATION_TYPE":"U","NORAD_CAT_ID":67895,"ELEMENT_SET_NO":999,"REV_AT_EPOCH":312,"BSTAR":-0.00055849309,"MEAN_MOTION_DOT":-0.00265345,"MEAN_MOTION_DDOT":2.7601011e-5},{"OBJECT_NAME":"STARLINK-36877","OBJECT_ID":"2026-035T","EPOCH":"2026-03-05T06:00:02.999808","MEAN_MOTION":15.98253994,"ECCENTRICITY":9.259e-5,"INCLINATION":97.2738,"RA_OF_ASC_NODE":356.2618,"ARG_OF_PERICENTER":92.2113,"MEAN_ANOMALY":266.5728,"EPHEMERIS_TYPE":0,"CLASSIFICATION_TYPE":"U","NORAD_CAT_ID":67896,"ELEMENT_SET_NO":999,"REV_AT_EPOCH":304,"BSTAR":-0.0021565894,"MEAN_MOTION_DOT":-0.00988094,"MEAN_MOTION_DDOT":0.00031441215},{"OBJECT_NAME":"STARLINK-36870","OBJECT_ID":"2026-035U","EPOCH":"2026-03-05T04:26:45.465216","MEAN_MOTION":15.98875422,"ECCENTRICITY":0.00014745,"INCLINATION":97.2734,"RA_OF_ASC_NODE":356.1978,"ARG_OF_PERICENTER":164.0686,"MEAN_ANOMALY":196.0639,"EPHEMERIS_TYPE":0,"CLASSIFICATION_TYPE":"U","NORAD_CAT_ID":67897,"ELEMENT_SET_NO":999,"REV_AT_EPOCH":312,"BSTAR":-0.00027356599,"MEAN_MOTION_DOT":-0.00130907,"MEAN_MOTION_DDOT":8.543024e-6}]
