STARLINK-36817          
1 67882U 26035D   26064.25003472 -.00963881  29772-3 -21954-2 0  9998
2 67882  97.2755 356.2472 0001037 117.3792 204.9943 15.97476033  3041
STARLINK-36856          
1 67883U 26035E   26064.25003472 -.00964638  29790-3 -22064-2 0  9993
2 67883  97.2761 356.2457 0001019 105.5076 213.0313 15.97398672  3040
STARLINK-36842          
1 67884U 26035F   26064.25003472 -.00959515  29548-3 -21757-2 0  9991
2 67884  97.2756 356.2486 0001177 128.6588 197.3074 15.97556065  3046
STARLINK-36826          
1 67885U 26035G   26064.25003472 -.00904825  26522-3 -20409-2 0  9998
2 67885  97.2755 356.2500 0001245 128.0279 200.8474 15.97644600  3047
STARLINK-36390          
1 67886U 26035H   26064.25003472 -.00968852  30136-3 -21781-2 0  9999
2 67886  97.2751 356.2518 0000969  99.0799 234.1117 15.97714316  3090
STARLINK-36368          
1 67887U 26035J   26064.25003472 -.00974926  30517-3 -21811-2 0  9996
2 67887  97.2750 356.2537 0001183 119.6032 217.7106 15.97803173  3049
STARLINK-36801          
1 67888U 26035K   26064.25003472 -.00983411  31041-3 -21898-2 0  9994
2 67888  97.2747 356.2552 0001016 119.5485 221.7466 15.97890003  3041
STARLINK-36372          
1 67889U 26035L   26064.25003472 -.00974564  30584-3 -21488-2 0  9990
2 67889  97.2742 356.2580 0001102 129.1382 219.8062 15.98067460  3041
STARLINK-36363          
1 67890U 26035M   26064.25003472 -.00972370  30425-3 -21554-2 0  9993
2 67890  97.2746 356.2571 0001058 111.8581 233.9198 15.97971389  3046
STARLINK-36816          
1 67891U 26035N   26064.17938029 -.00437906  70038-4 -87870-3 0  9990
2 67891  97.2738 356.2032 0001614 175.2472 184.8822 15.99682736  3125
STARLINK-36813          
1 67892U 26035P   26064.18384213 -.00267850  28165-4 -55437-3 0  9999
2 67892  97.2727 356.1986 0000802 130.2811 229.8538 15.99104641  3125
STARLINK-36803          
1 67893U 26035Q   26064.25003472 -.00975540  30668-3 -21414-2 0  9992
2 67893  97.2742 356.2599 0000992 111.2174 242.5057 15.98148765  3048
STARLINK-36846          
1 67894U 26035R   26064.25003472 -.00999829  32172-3 -21703-2 0  9992
2 67894  97.2737 356.2639 0001028 113.6422 249.8287 15.98354503  3045
STARLINK-36866          
1 67895U 26035S   26064.18609463 -.00265345  27601-4 -55849-3 0  9997
2 67895  97.2738 356.1972 0000624  49.4563 310.6769 15.98803356  3125
STARLINK-36877          
1 67896U 26035T   26064.25003472 -.00988094  31441-3 -21566-2 0  9991
2 67896  97.2738 356.2618 0000925  92.2113 266.5728 15.98253994  3047
STARLINK-36870          
1 67897U 26035U   26064.18524844 -.00130907  85430-5 -27357-3 0  9991
2 67897  97.2734 356.1978 0001474 164.0686 196.0639 15.98875422  3128
